[{"OBJECT_NAME":"STARLINK-30569","OBJECT_ID":"2023-158T","EPOCH":"2026-03-09T22:00:01.999584","MEAN_MOTION":15.15005129,"ECCENTRICITY":0.00022494,"INCLINATION":42.9997,"RA_OF_ASC_NODE":28.3107,"ARG_OF_PERICENTER":271.6745,"MEAN_ANOMALY":126.7361,"EPHEMERIS_TYPE":0,"CLASSIFICATION_TYPE":"U","NORAD_CAT_ID":58068,"ELEMENT_SET_NO":999,"REV_AT_EPOCH":558,"BSTAR":0.0041706163,"MEAN_MOTION_DOT":0.00079957,"MEAN_MOTION_DDOT":0},{"OBJECT_NAME":"OBJECT AC","OBJECT_ID":"2025-313AC","EPOCH":"2026-03-09T21:09:33.957792","MEAN_MOTION":15.21172944,"ECCENTRICITY":0.00146625,"INCLINATION":97.3999,"RA_OF_ASC_NODE":145.117,"ARG_OF_PERICENTER":358.5779,"MEAN_ANOMALY":1.5413,"EPHEMERIS_TYPE":0,"CLASSIFICATION_TYPE":"U","NORAD_CAT_ID":67274,"ELEMENT_SET_NO":999,"REV_AT_EPOCH":1084,"BSTAR":0.00041099794,"MEAN_MOTION_DOT":9.12e-5,"MEAN_MOTION_DDOT":0}]
